[{"OBJECT_NAME":"COSMOS 2251 DEB","OBJECT_ID":"1993-036BSP","EPOCH":"2026-03-30T03:32:44.088000","MEAN_MOTION":13.64988367,"ECCENTRICITY":0.03681726,"INCLINATION":73.954,"RA_OF_ASC_NODE":245.6761,"ARG_OF_PERICENTER":151.2147,"MEAN_ANOMALY":210.9844,"EPHEMERIS_TYPE":0,"CLASSIFICATION_TYPE":"U","NORAD_CAT_ID":38199,"ELEMENT_SET_NO":999,"REV_AT_EPOCH":62487,"BSTAR":0.0010684603,"MEAN_MOTION_DOT":1.352e-5,"MEAN_MOTION_DDOT":0},{"OBJECT_NAME":"COSMOS 2251 DEB","OBJECT_ID":"1993-036BSY","EPOCH":"2026-04-25T10:04:56.754048","MEAN_MOTION":14.89915098,"ECCENTRICITY":0.0007178,"INCLINATION":74.0034,"RA_OF_ASC_NODE":172.1483,"ARG_OF_PERICENTER":257.699,"MEAN_ANOMALY":112.8778,"EPHEMERIS_TYPE":0,"CLASSIFICATION_TYPE":"U","NORAD_CAT_ID":38208,"ELEMENT_SET_NO":999,"REV_AT_EPOCH":73146,"BSTAR":0.0017462,"MEAN_MOTION_DOT":0.00016819,"MEAN_MOTION_DDOT":0},{"OBJECT_NAME":"COSMOS 2251 DEB","OBJECT_ID":"1993-036BTC","EPOCH":"2026-04-22T21:57:01.377792","MEAN_MOTION":14.78560959,"ECCENTRICITY":0.0092748,"INCLINATION":74.0507,"RA_OF_ASC_NODE":179.167,"ARG_OF_PERICENTER":211.8273,"MEAN_ANOMALY":147.728,"EPHEMERIS_TYPE":0,"CLASSIFICATION_TYPE":"U","NORAD_CAT_ID":38212,"ELEMENT_SET_NO":999,"REV_AT_EPOCH":83248,"BSTAR":0.00020986645,"MEAN_MOTION_DOT":1.611e-5,"MEAN_MOTION_DDOT":0},{"OBJECT_NAME":"COSMOS 2251 DEB","OBJECT_ID":"1993-036BTP","EPOCH":"2026-04-21T19:53:49.136352","MEAN_MOTION":14.39764171,"ECCENTRICITY":0.00817625,"INCLINATION":74.0076,"RA_OF_ASC_NODE":303.793,"ARG_OF_PERICENTER":24.0591,"MEAN_ANOMALY":351.6153,"EPHEMERIS_TYPE":0,"CLASSIFICATION_TYPE":"U","NORAD_CAT_ID":38479,"ELEMENT_SET_NO":999,"REV_AT_EPOCH":66559,"BSTAR":0.00089934417,"MEAN_MOTION_DOT":2.906e-5,"MEAN_MOTION_DDOT":0},{"OBJECT_NAME":"COSMOS 2251 DEB","OBJECT_ID":"1993-036BTR","EPOCH":"2026-04-21T10:15:16.883136","MEAN_MOTION":13.95432489,"ECCENTRICITY":0.0226293,"INCLINATION":73.9303,"RA_OF_ASC_NODE":143.3149,"ARG_OF_PERICENTER":57.5964,"MEAN_ANOMALY":304.684,"EPHEMERIS_TYPE":0,"CLASSIFICATION_TYPE":"U","NORAD_CAT_ID":38481,"ELEMENT_SET_NO":999,"REV_AT_EPOCH":60869,"BSTAR":0.00065388303,"MEAN_MOTION_DOT":1.076e-5,"MEAN_MOTION_DDOT":0},{"OBJECT_NAME":"COSMOS 2251 DEB","OBJECT_ID":"1993-036BTT","EPOCH":"2026-04-25T17:51:22.104576","MEAN_MOTION":14.29476814,"ECCENTRICITY":0.0114283,"INCLINATION":74.2577,"RA_OF_ASC_NODE":131.7447,"ARG_OF_PERICENTER":197.9013,"MEAN_ANOMALY":161.8099,"EPHEMERIS_TYPE":0,"CLASSIFICATION_TYPE":"U","NORAD_CAT_ID":38483,"ELEMENT_SET_NO":999,"REV_AT_EPOCH":65392,"BSTAR":0.0005125,"MEAN_MOTION_DOT":1.38e-5,"MEAN_MOTION_DDOT":0},{"OBJECT_NAME":"COSMOS 2251 DEB","OBJECT_ID":"1993-036BTW","EPOCH":"2026-04-25T18:51:43.989984","MEAN_MOTION":14.77910996,"ECCENTRICITY":0.0031847,"INCLINATION":73.9385,"RA_OF_ASC_NODE":301.0206,"ARG_OF_PERICENTER":60.8231,"MEAN_ANOMALY":316.262,"EPHEMERIS_TYPE":0,"CLASSIFICATION_TYPE":"U","NORAD_CAT_ID":38486,"ELEMENT_SET_NO":999,"REV_AT_EPOCH":77412,"BSTAR":0.001936,"MEAN_MOTION_DOT":0.00014055,"MEAN_MOTION_DDOT":0},{"OBJECT_NAME":"COSMOS 2251 DEB","OBJECT_ID":"1993-036BTX","EPOCH":"2026-04-25T17:12:15.014016","MEAN_MOTION":15.32942157,"ECCENTRICITY":0.0026041,"INCLINATION":73.9651,"RA_OF_ASC_NODE":109.7593,"ARG_OF_PERICENTER":244.1526,"MEAN_ANOMALY":115.6992,"EPHEMERIS_TYPE":0,"CLASSIFICATION_TYPE":"U","NORAD_CAT_ID":38487,"ELEMENT_SET_NO":999,"REV_AT_EPOCH":68842,"BSTAR":0.0019524,"MEAN_MOTION_DOT":0.0006329,"MEAN_MOTION_DDOT":0},{"OBJECT_NAME":"COSMOS 2251 DEB","OBJECT_ID":"1993-036BUC","EPOCH":"2026-04-22T01:45:27.814176","MEAN_MOTION":14.96081051,"ECCENTRICITY":0.00405101,"INCLINATION":73.9969,"RA_OF_ASC_NODE":233.6567,"ARG_OF_PERICENTER":359.1734,"MEAN_ANOMALY":0.9376,"EPHEMERIS_TYPE":0,"CLASSIFICATION_TYPE":"U","NORAD_CAT_ID":39546,"ELEMENT_SET_NO":999,"REV_AT_EPOCH":66383,"BSTAR":0.00085725719,"MEAN_MOTION_DOT":9.771e-5,"MEAN_MOTION_DDOT":0},{"OBJECT_NAME":"COSMOS 2251 DEB","OBJECT_ID":"1993-036BUD","EPOCH":"2026-04-25T17:02:51.456192","MEAN_MOTION":15.22254144,"ECCENTRICITY":0.0012614,"INCLINATION":74.0002,"RA_OF_ASC_NODE":100.2706,"ARG_OF_PERICENTER":233.0329,"MEAN_ANOMALY":303.7009,"EPHEMERIS_TYPE":0,"CLASSIFICATION_TYPE":"U","NORAD_CAT_ID":39547,"ELEMENT_SET_NO":999,"REV_AT_EPOCH":66050,"BSTAR":0.0035507,"MEAN_MOTION_DOT":0.00082775,"MEAN_MOTION_DDOT":0},{"OBJECT_NAME":"COSMOS 2251 DEB","OBJECT_ID":"1993-036BUK","EPOCH":"2026-04-22T17:09:08.579232","MEAN_MOTION":14.00422908,"ECCENTRICITY":0.02068467,"INCLINATION":74.0256,"RA_OF_ASC_NODE":103.03,"ARG_OF_PERICENTER":209.2813,"MEAN_ANOMALY":149.6603,"EPHEMERIS_TYPE":0,"CLASSIFICATION_TYPE":"U","NORAD_CAT_ID":39553,"ELEMENT_SET_NO":999,"REV_AT_EPOCH":77450,"BSTAR":0.00080057452,"MEAN_MOTION_DOT":1.404e-5,"MEAN_MOTION_DDOT":0},{"OBJECT_NAME":"COSMOS 2251 DEB","OBJECT_ID":"1993-036BUL","EPOCH":"2026-04-25T14:36:31.724064","MEAN_MOTION":15.28692998,"ECCENTRICITY":0.0012518,"INCLINATION":74.0096,"RA_OF_ASC_NODE":343.8198,"ARG_OF_PERICENTER":142.2897,"MEAN_ANOMALY":217.9184,"EPHEMERIS_TYPE":0,"CLASSIFICATION_TYPE":"U","NORAD_CAT_ID":39554,"ELEMENT_SET_NO":999,"REV_AT_EPOCH":66418,"BSTAR":0.0024338,"MEAN_MOTION_DOT":0.00068668,"MEAN_MOTION_DDOT":0},{"OBJECT_NAME":"COSMOS 2251 DEB","OBJECT_ID":"1993-036BUN","EPOCH":"2026-04-20T22:34:22.712160","MEAN_MOTION":14.63093644,"ECCENTRICITY":0.01330827,"INCLINATION":73.9326,"RA_OF_ASC_NODE":358.2819,"ARG_OF_PERICENTER":84.6681,"MEAN_ANOMALY":276.9654,"EPHEMERIS_TYPE":0,"CLASSIFICATION_TYPE":"U","NORAD_CAT_ID":39583,"ELEMENT_SET_NO":999,"REV_AT_EPOCH":63667,"BSTAR":0.001616421,"MEAN_MOTION_DOT":9.419e-5,"MEAN_MOTION_DDOT":0},{"OBJECT_NAME":"COSMOS 2251 DEB","OBJECT_ID":"1993-036BUQ","EPOCH":"2026-04-25T01:57:53.673408","MEAN_MOTION":14.59016138,"ECCENTRICITY":0.00660427,"INCLINATION":74.0422,"RA_OF_ASC_NODE":47.4051,"ARG_OF_PERICENTER":136.0678,"MEAN_ANOMALY":224.5765,"EPHEMERIS_TYPE":0,"CLASSIFICATION_TYPE":"U","NORAD_CAT_ID":39585,"ELEMENT_SET_NO":999,"REV_AT_EPOCH":64465,"BSTAR":0.00016109969,"MEAN_MOTION_DOT":7.49e-6,"MEAN_MOTION_DDOT":0},{"OBJECT_NAME":"COSMOS 2251 DEB","OBJECT_ID":"1993-036BUR","EPOCH":"2026-04-22T22:32:57.894144","MEAN_MOTION":14.2149532,"ECCENTRICITY":0.01007661,"INCLINATION":74.0104,"RA_OF_ASC_NODE":352.6486,"ARG_OF_PERICENTER":97.8961,"MEAN_ANOMALY":280.7992,"EPHEMERIS_TYPE":0,"CLASSIFICATION_TYPE":"U","NORAD_CAT_ID":39586,"ELEMENT_SET_NO":999,"REV_AT_EPOCH":62836,"BSTAR":0.00026527297,"MEAN_MOTION_DOT":5.87e-6,"MEAN_MOTION_DDOT":0}]
