COSMOS 2251 DEB         
1 38199U 93036BSP 26089.14773250  .00001352  00000+0  10685-2 0  9997
2 38199  73.9540 245.6761 0368172 151.2147 210.9844 13.64988367624879
COSMOS 2251 DEB         
1 38208U 93036BSY 26115.42010133  .00016819  00000+0  17462-2 0  9997
2 38208  74.0034 172.1483 0007177 257.6990 112.8778 14.89915098731466
COSMOS 2251 DEB         
1 38212U 93036BTC 26112.91459928  .00001611  00000+0  20987-3 0  9993
2 38212  74.0507 179.1670 0092748 211.8273 147.7280 14.78560959832484
COSMOS 2251 DEB         
1 38479U 93036BTP 26111.82904093  .00002906  00000+0  89934-3 0  9990
2 38479  74.0076 303.7930 0081762  24.0591 351.6153 14.39764171665595
COSMOS 2251 DEB         
1 38481U 93036BTR 26111.42727874  .00001076  00000+0  65388-3 0  9993
2 38481  73.9303 143.3149 0226293  57.5964 304.6840 13.95432489608698
COSMOS 2251 DEB         
1 38483U 93036BTT 26115.74400585  .00001380  00000+0  51250-3 0  9992
2 38483  74.2577 131.7447 0114282 197.9013 161.8099 14.29476814653920
COSMOS 2251 DEB         
1 38486U 93036BTW 26115.78592582  .00014055  00000+0  19360-2 0  9996
2 38486  73.9385 301.0206 0031847  60.8231 316.2620 14.77910996774125
COSMOS 2251 DEB         
1 38487U 93036BTX 26115.71684045  .00063290  00000+0  19524-2 0  9993
2 38487  73.9651 109.7593 0026041 244.1526 115.6992 15.32942157688424
COSMOS 2251 DEB         
1 39546U 93036BUC 26112.07323859  .00009771  00000+0  85726-3 0  9991
2 39546  73.9969 233.6567 0040510 359.1734   0.9376 14.96081051663832
COSMOS 2251 DEB         
1 39547U 93036BUD 26115.71031778  .00082775  00000+0  35507-2 0  9998
2 39547  74.0002 100.2706 0012614 233.0329 303.7009 15.22254144660504
COSMOS 2251 DEB         
1 39553U 93036BUK 26112.71468263  .00001404  00000+0  80057-3 0  9996
2 39553  74.0256 103.0300 0206846 209.2813 149.6603 14.00422908774501
COSMOS 2251 DEB         
1 39554U 93036BUL 26115.60870051  .00068668  00000+0  24338-2 0  9994
2 39554  74.0096 343.8198 0012517 142.2897 217.9184 15.28692998664185
COSMOS 2251 DEB         
1 39583U 93036BUN 26110.94054065  .00009419  00000+0  16164-2 0  9994
2 39583  73.9326 358.2819 0133082  84.6681 276.9654 14.63093644636673
COSMOS 2251 DEB         
1 39585U 93036BUQ 26115.08187122  .00000749  00000+0  16110-3 0  9996
2 39585  74.0422  47.4051 0066042 136.0678 224.5765 14.59016138644655
COSMOS 2251 DEB         
1 39586U 93036BUR 26112.93955896  .00000587  00000+0  26527-3 0  9992
2 39586  74.0104 352.6486 0100766  97.8961 280.7992 14.21495320628366
